FLOCK 4BE-35            
1 60558U 24149CU  26061.83392559  .00096720  00000+0  22332-2 0  9990
2 60558  97.3807 144.9905 0004390 280.8638  79.2115 15.42162443 85946
FLOCK 4BE-5             
1 60559U 24149CV  26061.76022101  .00023784  00000+0  66517-3 0  9990
2 60559  97.3899 144.9897 0002444 326.0453  34.0634 15.36666858 85918
FLOCK 4BE-12            
1 60560U 24149CW  26061.86883967  .00109388  00000+0  22920-2 0  9992
2 60560  97.3774 145.7249 0005622 284.3324  75.7300 15.44997626 86019
FLOCK 4BE-3             
1 60561U 24149CX  26061.76825859  .00020908  00000+0  56276-3 0  9990
2 60561  97.3761 144.9220 0003156 312.2533  47.8444 15.37881988 85966
FLOCK 4BE-19            
1 60563U 24149CZ  26061.78455475  .00024237  00000+0  60875-3 0  9996
2 60563  97.3798 146.0167 0003206 318.4974  41.6028 15.39978926 86023
PELICAN-2               
1 62631U 25009Y   26061.77481825  .00131712  00000+0  32135-2 0  9991
2 62631  97.4033 151.9962 0007276 218.6770 141.3956 15.40335051 63175
PELICAN-3               
1 65315U 25188A   26061.66052410  .00004143  00000+0  10375-3 0  9993
2 65315  97.2276 139.2926 0003169 183.0757 177.0471 15.40637623 28911
PELICAN-4               
1 65316U 25188B   26061.74107635  .00011515  00000+0  28428-3 0  9992
2 65316  97.2274 139.4492 0005441 110.8219 249.3611 15.40653855 28921
